[{"OBJECT_NAME":"STARLINK-3885","OBJECT_ID":"2022-049N","EPOCH":"2026-03-09T22:25:46.637184","MEAN_MOTION":15.08854291,"ECCENTRICITY":0.00013888,"INCLINATION":53.2175,"RA_OF_ASC_NODE":48.0223,"ARG_OF_PERICENTER":77.793,"MEAN_ANOMALY":282.3218,"EPHEMERIS_TYPE":0,"CLASSIFICATION_TYPE":"U","NORAD_CAT_ID":52463,"ELEMENT_SET_NO":999,"REV_AT_EPOCH":21242,"BSTAR":9.6320074e-5,"MEAN_MOTION_DOT":1.246e-5,"MEAN_MOTION_DDOT":0},{"OBJECT_NAME":"OBJECT T","OBJECT_ID":"2018-099T","EPOCH":"2026-03-09T14:32:29.418720","MEAN_MOTION":15.09436097,"ECCENTRICITY":0.0004517,"INCLINATION":97.4347,"RA_OF_ASC_NODE":115.9313,"ARG_OF_PERICENTER":320.9739,"MEAN_ANOMALY":39.1164,"EPHEMERIS_TYPE":0,"CLASSIFICATION_TYPE":"U","NORAD_CAT_ID":43775,"ELEMENT_SET_NO":999,"REV_AT_EPOCH":39729,"BSTAR":0.00032877,"MEAN_MOTION_DOT":5.2e-5,"MEAN_MOTION_DDOT":0}]
